*******************************************************************************
JPL/HORIZONS                 56 Melete (A857 RB)           2020-Jun-20 08:02:38
Rec #:      56 (+COV) Soln.date: 2020-May-20_00:57:14   # obs: 2788 (1865-2020)
 
IAU76/J2000 helio. ecliptic osc. elements (au, days, deg., period=Julian yrs):
 
  EPOCH=  2455185.5 ! 2009-Dec-20.00 (TDB)         Residual RMS= .3281
   EC= .237706793294729    QR= 1.978985426879203   TP= 2454491.2697649323
   OM= 193.4370568073782   W=  103.6113835664138   IN= 8.069300256452896
   A= 2.596094795902264    MA= 163.5787096755761   ADIST= 3.213204164925325
   PER= 4.18301            N= .235626017           ANGMOM= .026922267
   DAN= 2.59454            DDN= 2.31964            L= 297.1794178
   B= 7.8412213            MOID= .98080897         TP= 2008-Jan-25.7697649323
 
Asteroid physical parameters (km, seconds, rotational period in hours):
   GM= n.a.                RAD= 60.6665            ROTPER= 18.147
   H= 8.5                  G= .150                 B-V= .697
                           ALBEDO= .057            STYP= Xk
 
ASTEROID comments: 
1: soln ref.= JPL#109, OCC=0
2: source=ORB
*******************************************************************************
 
 
*******************************************************************************
Ephemeris / WWW_USER Sat Jun 20 08:02:38 2020 Pasadena, USA      / Horizons
*******************************************************************************
Target body name: 56 Melete (A857 RB)             {source: JPL#109}
Center body name: Solar System Barycenter (0)     {source: DE431}
Center-site name: BODY CENTER
*******************************************************************************
Start time      : A.D. 1969-Jun-28 00:00:00.0000 TDB
Stop  time      : A.D. 2071-May-04 00:00:00.0000 TDB
Step-size       : 7200 minutes
*******************************************************************************
Center geodetic : 0.00000000,0.00000000,0.0000000 {E-lon(deg),Lat(deg),Alt(km)}
Center cylindric: 0.00000000,0.00000000,0.0000000 {E-lon(deg),Dxy(km),Dz(km)}
Center radii    : (undefined)                                                  
Small perturbers: Yes                             {source: SB431-N16}
Output units    : AU-D
Output type     : GEOMETRIC cartesian states
Output format   : 2 (position and velocity)
Reference frame : Ecliptic of J2000.0
*******************************************************************************
Initial IAU76/J2000 heliocentric ecliptic osculating elements (au, days, deg.):
  EPOCH=  2455185.5 ! 2009-Dec-20.00 (TDB)         Residual RMS= .3281         
   EC= .237706793294729    QR= 1.978985426879203   TP= 2454491.2697649323      
   OM= 193.4370568073782   W=  103.6113835664138   IN= 8.069300256452896       
  Equivalent ICRF heliocentric equatorial cartesian coordinates (au, au/d):
   X=-9.059297740618584E-01  Y= 2.960670380774417E+00  Z= 7.952753768822900E-01
  VX=-8.206277584777290E-03 VY=-1.790582381310215E-03 VZ=-7.775879914933062E-04
Asteroid physical parameters (km, seconds, rotational period in hours):        
   GM= n.a.                RAD= 60.6665            ROTPER= 18.147              
   H= 8.5                  G= .150                 B-V= .697                   
                           ALBEDO= .057            STYP= Xk                    
*******************************************************************************
            JDTDB,            Calendar Date (TDB),        delta-T,                      X,                      Y,                      Z,                     VX,                     VY,                     VZ,
******************************************************************************************************************************************************************************************************************
$$SOE
2444460.500000000, A.D. 1980-Aug-09 00:00:00.0000,      51.183047, -7.320162798722252E-01,  3.059684309997723E+00, -4.470138125390598E-01, -8.380445654862637E-03, -1.418704319781942E-03, -9.061844071531206E-05,
2444465.500000000, A.D. 1980-Aug-14 00:00:00.0000,      51.182938, -7.738318260840018E-01,  3.052239013427196E+00, -4.474154562727284E-01, -8.345467990419693E-03, -1.559293395868303E-03, -7.004526573071982E-05,
2444470.500000000, A.D. 1980-Aug-19 00:00:00.0000,      51.182836, -8.154679217897446E-01,  3.044092590985303E+00, -4.477143284851243E-01, -8.308667515630929E-03, -1.699153505228940E-03, -4.951006323208946E-05,
2444475.500000000, A.D. 1980-Aug-24 00:00:00.0000,      51.182741, -8.569154834291286E-01,  3.035248704930313E+00, -4.479106224854453E-01, -8.270056336083157E-03, -1.838277681855716E-03, -2.901420828040786E-05,
2444480.500000000, A.D. 1980-Aug-29 00:00:00.0000,      51.182653, -8.981654866125106E-01,  3.025711052305804E+00, -4.480045384054384E-01, -8.229646015952254E-03, -1.976658975037749E-03, -8.559055223360597E-06,
2444485.500000000, A.D. 1980-Sep-03 00:00:00.0000,      51.182577, -9.392089634364813E-01,  3.015483364903180E+00, -4.479962831017533E-01, -8.187447587076624E-03, -2.114290433735727E-03,  1.185405991655975E-05,
2444490.500000000, A.D. 1980-Sep-08 00:00:00.0000,      51.182513, -9.800369998447975E-01,  3.004569409302697E+00, -4.478860700705333E-01, -8.143471557959645E-03, -2.251165090825106E-03,  3.222381694401842E-05,
2444495.500000000, A.D. 1980-Sep-13 00:00:00.0000,      51.182459, -1.020640733033582E+00,  2.992972986993025E+00, -4.476741193745516E-01, -8.097727922473095E-03, -2.387275947488803E-03,  5.254890899066801E-05,
2444500.500000000, A.D. 1980-Sep-18 00:00:00.0000,      51.182416, -1.061011348899431E+00,  2.980697934568092E+00, -4.473606575827070E-01, -8.050226168333669E-03, -2.522615957914312E-03,  7.282804007171465E-05,
2444505.500000000, A.D. 1980-Sep-23 00:00:00.0000,      51.182383, -1.101140079529519E+00,  2.967748123999752E+00, -4.469459177216139E-01, -8.000975285433910E-03, -2.657178014254980E-03,  9.305992268878276E-05,
2444510.500000000, A.D. 1980-Sep-28 00:00:00.0000,      51.182362, -1.141018200733031E+00,  2.954127462985157E+00, -4.464301392391101E-01, -7.949983774038676E-03, -2.790954931773927E-03,  1.132432754565994E-04,
2444515.500000000, A.D. 1980-Oct-03 00:00:00.0000,      51.182353, -1.180637029613184E+00,  2.939839895368046E+00, -4.458135679795890E-01, -7.897259652819441E-03, -2.923939434133049E-03,  1.333768207470740E-04,
2444520.500000000, A.D. 1980-Oct-08 00:00:00.0000,      51.182359, -1.219987922178927E+00,  2.924889401633261E+00, -4.450964561710629E-01, -7.842810466682972E-03, -3.056124138810216E-03,  1.534592823540396E-04,
2444525.500000000, A.D. 1980-Oct-13 00:00:00.0000,      51.182377, -1.259062270995190E+00,  2.909279999473804E+00, -4.442790624238152E-01, -7.786643294358189E-03, -3.187501542675466E-03,  1.734893831969977E-04,
2444530.500000000, A.D. 1980-Oct-18 00:00:00.0000,      51.182406, -1.297851502870421E+00,  2.893015744429511E+00, -4.433616517403857E-01, -7.728764755722609E-03, -3.318064007777545E-03,  1.934658430888708E-04,
2444535.500000000, A.D. 1980-Oct-23 00:00:00.0000,      51.182445, -1.336347076580146E+00,  2.876100730596129E+00, -4.423444955365005E-01, -7.669181018897853E-03, -3.447803747405529E-03,  2.133873765929545E-04,
2444540.500000000, A.D. 1980-Oct-28 00:00:00.0000,      51.182496, -1.374540480625602E+00,  2.858539091403308E+00, -4.412278716724702E-01, -7.607897807198404E-03, -3.576712812464457E-03,  2.332526909800914E-04,
2444545.500000000, A.D. 1980-Nov-02 00:00:00.0000,      51.182559, -1.412423231027027E+00,  2.840335000459965E+00, -4.400120644945758E-01, -7.544920406077700E-03, -3.704783078138677E-03,  2.530604842686638E-04,
2444550.500000000, A.D. 1980-Nov-07 00:00:00.0000,      51.182635, -1.449986869152051E+00,  2.821492672465892E+00, -4.386973648861733E-01, -7.480253670248815E-03, -3.832006230688609E-03,  2.728094432828120E-04,
2444555.500000000, A.D. 1980-Nov-12 00:00:00.0000,      51.182721, -1.487222959580363E+00,  2.802016364189681E+00, -4.372840703286850E-01, -7.413902031067588E-03, -3.958373754073022E-03,  2.924982416204599E-04,
2444560.500000000, A.D. 1980-Nov-17 00:00:00.0000,      51.182816, -1.524123088005531E+00,  2.781910375514501E+00, -4.357724849731089E-01, -7.345869503940649E-03, -4.083876916188323E-03,  3.121255374882360E-04,
2444565.500000000, A.D. 1980-Nov-22 00:00:00.0000,      51.182918, -1.560678859173089E+00,  2.761179050552987E+00, -4.341629197223713E-01, -7.276159695409675E-03, -4.208506755077739E-03,  3.316899715625716E-04,
2444570.500000000, A.D. 1980-Nov-27 00:00:00.0000,      51.183029, -1.596881894853770E+00,  2.739826778830404E+00, -4.324556923241000E-01, -7.204775810217464E-03, -4.332254065389577E-03,  3.511901649434412E-04,
2444575.500000000, A.D. 1980-Dec-02 00:00:00.0000,      51.183148, -1.632723831852903E+00,  2.717857996535833E+00, -4.306511274737977E-01, -7.131720658713987E-03, -4.455109384608631E-03,  3.706247170065435E-04,
2444580.500000000, A.D. 1980-Dec-07 00:00:00.0000,      51.183276, -1.668196320057243E+00,  2.695277187843546E+00, -4.287495569292054E-01, -7.056996664358819E-03, -4.577062978754044E-03,  3.899922030863172E-04,
2444585.500000000, A.D. 1980-Dec-12 00:00:00.0000,      51.183409, -1.703291020518928E+00,  2.672088886306829E+00, -4.267513196364511E-01, -6.980605871052687E-03, -4.698104827748772E-03,  4.092911720963470E-04,
2444590.500000000, A.D. 1980-Dec-17 00:00:00.0000,      51.183546, -1.737999603575666E+00,  2.648297676325321E+00, -4.246567618680926E-01, -6.902549950308099E-03, -4.818224610663055E-03,  4.285201441578638E-04,
2444595.500000000, A.D. 1980-Dec-22 00:00:00.0000,      51.183684, -1.772313747006552E+00,  2.623908194686339E+00, -4.224662373729721E-01, -6.822830208348894E-03, -4.937411690872215E-03,  4.476776082430284E-04,
